{
  "type": "FeatureCollection",
  "features": [
    {
      "type": "Feature",
      "geometry": {
        "type": "LineString",
        "coordinates": [
          [
            46.6910246,
            24.7205649
          ],
          [
            46.6903045,
            24.7202526
          ],
          [
            46.6897736,
            24.7200208
          ],
          [
            46.6892619,
            24.7197976
          ],
          [
            46.6884304,
            24.7194338
          ],
          [
            46.6875502,
            24.719044
          ],
          [
            46.6864351,
            24.7185599
          ],
          [
            46.685471,
            24.7181413
          ],
          [
            46.6843306,
            24.7176348
          ],
          [
            46.6834088,
            24.7172257
          ],
          [
            46.6830802,
            24.7170831
          ],
          [
            46.6821342,
            24.7166581
          ]
        ]
      },
      "properties": {
        "id": "W-1",
        "group": "roadworks",
        "subtype": "emergency",
        "title": "إصلاح خط مياه رئيسي - طريق الملك فهد",
        "description": "إغلاق مسارين باتجاه الشمال حتى انتهاء الأعمال",
        "start": "2026-07-22T06:00:00Z",
        "end": "2026-07-30T18:00:00Z",
        "severity": 3,
        "promoter": "شركة المياه الوطنية",
        "street": "طريق العروبة"
      }
    },
    {
      "type": "Feature",
      "geometry": {
        "type": "LineString",
        "coordinates": [
          [
            46.6830468,
            24.6980892
          ],
          [
            46.682462,
            24.6991254
          ],
          [
            46.6823954,
            24.6992629
          ],
          [
            46.6823529,
            24.6993488
          ],
          [
            46.6822927,
            24.6994706
          ],
          [
            46.6822509,
            24.6995492
          ],
          [
            46.6820745,
            24.6999046
          ],
          [
            46.682015,
            24.7000245
          ],
          [
            46.6819028,
            24.7002468
          ],
          [
            46.6818818,
            24.7002889
          ],
          [
            46.6817344,
            24.700585
          ],
          [
            46.6816099,
            24.7008326
          ],
          [
            46.6815539,
            24.7009426
          ],
          [
            46.681476,
            24.7011028
          ],
          [
            46.681438,
            24.7011808
          ],
          [
            46.6811376,
            24.701798
          ],
          [
            46.6810731,
            24.7019306
          ],
          [
            46.6807049,
            24.7026183
          ],
          [
            46.6804566,
            24.7030994
          ],
          [
            46.6804184,
            24.7031619
          ],
          [
            46.6804111,
            24.7031752
          ],
          [
            46.6803479,
            24.703279
          ],
          [
            46.6802779,
            24.7034117
          ],
          [
            46.6802439,
            24.7034794
          ],
          [
            46.680211,
            24.7035448
          ],
          [
            46.6801555,
            24.7036522
          ],
          [
            46.6797843,
            24.704384
          ]
        ]
      },
      "properties": {
        "id": "W-2",
        "group": "roadworks",
        "subtype": "development",
        "title": "توسعة تقاطع - شارع العليا",
        "description": "أعمال إنشائية، تحويلة مؤقتة",
        "start": "2026-07-10T00:00:00Z",
        "end": "2026-09-15T00:00:00Z",
        "severity": 2,
        "promoter": "أمانة منطقة الرياض",
        "street": "شارع العليا"
      }
    },
    {
      "type": "Feature",
      "geometry": {
        "type": "LineString",
        "coordinates": [
          [
            46.6600926,
            24.703119
          ],
          [
            46.6603328,
            24.703323
          ],
          [
            46.6604766,
            24.7034585
          ],
          [
            46.6608181,
            24.7038058
          ],
          [
            46.6609053,
            24.7039103
          ],
          [
            46.6612777,
            24.7043994
          ],
          [
            46.6613675,
            24.7045206
          ],
          [
            46.6613726,
            24.7045275
          ],
          [
            46.6614492,
            24.7046607
          ],
          [
            46.6616994,
            24.7050953
          ],
          [
            46.6617477,
            24.7051793
          ],
          [
            46.6619568,
            24.7056866
          ],
          [
            46.6621735,
            24.7061367
          ],
          [
            46.662395,
            24.7064926
          ],
          [
            46.6626952,
            24.7068854
          ],
          [
            46.6629953,
            24.7072521
          ]
        ]
      },
      "properties": {
        "id": "W-3",
        "group": "roadworks",
        "subtype": "default",
        "title": "صيانة إنارة - طريق العروبة",
        "description": "إغلاق مسار الخدمة ليلاً",
        "start": "2026-07-24T20:00:00Z",
        "end": "2026-07-26T05:00:00Z",
        "severity": 1,
        "promoter": "الشركة السعودية للكهرباء",
        "street": "شارع أم الحمام"
      }
    },
    {
      "type": "Feature",
      "geometry": {
        "type": "Point",
        "coordinates": [
          46.686575,
          24.71862
        ]
      },
      "properties": {
        "id": "W-1-P",
        "group": "roadworks",
        "subtype": "emergency",
        "title": "موقع الحفرية",
        "description": "حفرية بعمق ٣ أمتار",
        "start": "2026-07-22T06:00:00Z",
        "end": "2026-07-30T18:00:00Z",
        "severity": 3,
        "promoter": "شركة المياه الوطنية",
        "street": "طريق العروبة"
      }
    },
    {
      "type": "Feature",
      "geometry": {
        "type": "Point",
        "coordinates": [
          46.682201,
          24.69965
        ]
      },
      "properties": {
        "id": "W-4",
        "group": "roadworks",
        "subtype": "development",
        "title": "أعمال أرصفة",
        "description": "إعادة تأهيل الرصيف الشرقي",
        "start": "2026-07-20T06:00:00Z",
        "end": "2026-08-05T18:00:00Z",
        "severity": 2,
        "promoter": "أمانة منطقة الرياض",
        "street": "شارع العليا"
      }
    },
    {
      "type": "Feature",
      "geometry": {
        "type": "Point",
        "coordinates": [
          46.68044,
          24.703126
        ]
      },
      "properties": {
        "id": "W-5",
        "group": "roadworks",
        "subtype": "end",
        "title": "انتهاء أعمال",
        "description": "أُعيد فتح المسار بالكامل",
        "start": "2026-07-23T06:00:00Z",
        "end": "2026-07-25T18:00:00Z",
        "severity": 0,
        "promoter": "أمانة منطقة الرياض",
        "street": "شارع العليا"
      }
    },
    {
      "type": "Feature",
      "geometry": {
        "type": "Point",
        "coordinates": [
          46.692533,
          24.710387
        ]
      },
      "properties": {
        "id": "C-1",
        "group": "closures",
        "subtype": "default",
        "title": "إغلاق تقاطع كامل",
        "description": "إغلاق كامل — استخدم التحويلة",
        "start": "2026-07-24T00:00:00Z",
        "end": "2026-08-01T00:00:00Z",
        "severity": 3,
        "promoter": "أمانة منطقة الرياض",
        "street": "شارع الأمير ممدوح بن عبدالعزيز"
      }
    },
    {
      "type": "Feature",
      "geometry": {
        "type": "LineString",
        "coordinates": [
          [
            46.69465,
            24.7112076
          ],
          [
            46.692996,
            24.7105662
          ],
          [
            46.6926535,
            24.7104368
          ],
          [
            46.6922778,
            24.710281
          ],
          [
            46.6904291,
            24.709539
          ]
        ]
      },
      "properties": {
        "id": "C-1-L",
        "group": "closures",
        "subtype": "default",
        "title": "المقطع المغلق",
        "description": "إغلاق كامل بين التقاطعين",
        "start": "2026-07-24T00:00:00Z",
        "end": "2026-08-01T00:00:00Z",
        "severity": 3,
        "promoter": "أمانة منطقة الرياض",
        "street": "شارع الأمير ممدوح بن عبدالعزيز"
      }
    },
    {
      "type": "Feature",
      "geometry": {
        "type": "Point",
        "coordinates": [
          46.661447,
          24.704656
        ]
      },
      "properties": {
        "id": "C-2",
        "group": "closures",
        "subtype": "default",
        "title": "إغلاق مسار",
        "description": "مسار واحد مغلق للصيانة",
        "start": "2026-07-24T05:00:00Z",
        "end": "2026-07-27T22:00:00Z",
        "severity": 2,
        "promoter": "الشركة السعودية للكهرباء",
        "street": "شارع أم الحمام"
      }
    },
    {
      "type": "Feature",
      "geometry": {
        "type": "Point",
        "coordinates": [
          46.670223,
          24.716232
        ]
      },
      "properties": {
        "id": "I-1",
        "group": "incidents",
        "subtype": "default",
        "title": "حادث مروري",
        "description": "تصادم — مساران مغلقان",
        "start": "2026-07-24T08:00:00Z",
        "end": "2026-07-24T14:00:00Z",
        "severity": 2,
        "promoter": "الإدارة العامة للمرور",
        "street": "طريق الملك فهد الفرعي"
      }
    },
    {
      "type": "Feature",
      "geometry": {
        "type": "Point",
        "coordinates": [
          46.663766,
          24.708694
        ]
      },
      "properties": {
        "id": "I-2",
        "group": "incidents",
        "subtype": "default",
        "title": "مركبة معطلة",
        "description": "على كتف الطريق",
        "start": "2026-07-24T09:30:00Z",
        "end": "2026-07-24T12:00:00Z",
        "severity": 1,
        "promoter": "الإدارة العامة للمرور",
        "street": "طريق العروبة الفرعي"
      }
    },
    {
      "type": "Feature",
      "geometry": {
        "type": "LineString",
        "coordinates": [
          [
            46.670252,
            24.7114454
          ],
          [
            46.6696377,
            24.7111816
          ],
          [
            46.6692707,
            24.7110356
          ],
          [
            46.668057,
            24.7105196
          ],
          [
            46.6678914,
            24.7104414
          ],
          [
            46.6675364,
            24.7102954
          ],
          [
            46.6673462,
            24.7102165
          ],
          [
            46.6671502,
            24.710126
          ],
          [
            46.6669824,
            24.7100628
          ],
          [
            46.6668821,
            24.7100156
          ],
          [
            46.6667829,
            24.7099802
          ],
          [
            46.6660576,
            24.7096826
          ],
          [
            46.6654169,
            24.7093905
          ],
          [
            46.6646802,
            24.7090824
          ],
          [
            46.6636511,
            24.7086449
          ],
          [
            46.6633282,
            24.7085229
          ],
          [
            46.6632103,
            24.7084742
          ],
          [
            46.6628016,
            24.708286
          ],
          [
            46.6619255,
            24.7079211
          ],
          [
            46.6615436,
            24.7077624
          ],
          [
            46.6610767,
            24.7075646
          ],
          [
            46.6594319,
            24.7068791
          ]
        ]
      },
      "properties": {
        "id": "D-1",
        "group": "diversions",
        "subtype": "default",
        "title": "تحويلة W-1",
        "description": "المسار البديل أثناء الإغلاق",
        "start": "2026-07-22T06:00:00Z",
        "end": "2026-07-30T18:00:00Z",
        "severity": 0,
        "promoter": "أمانة منطقة الرياض",
        "street": "طريق العروبة الفرعي"
      }
    },
    {
      "type": "Feature",
      "geometry": {
        "type": "LineString",
        "coordinates": [
          [
            46.6732183,
            24.7102032
          ],
          [
            46.6726705,
            24.7112836
          ],
          [
            46.6724692,
            24.7117005
          ],
          [
            46.6722637,
            24.7120873
          ],
          [
            46.672248,
            24.7121151
          ],
          [
            46.6721879,
            24.7122436
          ],
          [
            46.671996,
            24.7126043
          ],
          [
            46.671768,
            24.7130451
          ],
          [
            46.6715787,
            24.7133666
          ],
          [
            46.6711223,
            24.714333
          ],
          [
            46.6710912,
            24.7143934
          ],
          [
            46.6708711,
            24.7148216
          ],
          [
            46.6707517,
            24.7151138
          ],
          [
            46.6703511,
            24.7159962
          ],
          [
            46.6696472,
            24.7172921
          ],
          [
            46.6687343,
            24.719065
          ],
          [
            46.6687077,
            24.7191276
          ],
          [
            46.6680508,
            24.7205253
          ],
          [
            46.6679848,
            24.7206653
          ],
          [
            46.6674818,
            24.7215888
          ],
          [
            46.6674069,
            24.7217337
          ],
          [
            46.6673763,
            24.7217929
          ],
          [
            46.667249,
            24.7220394
          ],
          [
            46.6671676,
            24.7221971
          ],
          [
            46.6668309,
            24.7228658
          ],
          [
            46.666313,
            24.7239584
          ],
          [
            46.6662567,
            24.7240771
          ],
          [
            46.6661875,
            24.7242231
          ],
          [
            46.6655986,
            24.7253107
          ],
          [
            46.6654937,
            24.7254898
          ],
          [
            46.6653861,
            24.7256736
          ],
          [
            46.6648773,
            24.7266648
          ],
          [
            46.6647346,
            24.7269378
          ],
          [
            46.6646909,
            24.7270213
          ],
          [
            46.6645339,
            24.7273791
          ]
        ]
      },
      "properties": {
        "id": "B-1",
        "group": "diversions",
        "subtype": "bus",
        "title": "مسار الحافلة ١٢",
        "description": "متأثر بالأعمال الجارية",
        "start": "2026-01-01T00:00:00Z",
        "end": "2027-01-01T00:00:00Z",
        "severity": 0,
        "promoter": "النقل العام",
        "street": "طريق الملك فهد الفرعي"
      }
    },
    {
      "type": "Feature",
      "geometry": {
        "type": "Point",
        "coordinates": [
          46.690134,
          24.720178
        ]
      },
      "properties": {
        "id": "P-1",
        "group": "pois",
        "subtype": "parking",
        "title": "موقف بديل",
        "description": "٢٠٠ موقف مجاني أثناء الأعمال",
        "start": "2026-07-01T00:00:00Z",
        "end": "2026-12-31T00:00:00Z",
        "severity": 0,
        "promoter": "أمانة منطقة الرياض",
        "street": "طريق العروبة"
      }
    },
    {
      "type": "Feature",
      "geometry": {
        "type": "Point",
        "coordinates": [
          46.683464,
          24.71725
        ]
      },
      "properties": {
        "id": "P-2",
        "group": "pois",
        "subtype": "information",
        "title": "نقطة معلومات",
        "description": "استعلامات المشروع",
        "start": "2026-07-01T00:00:00Z",
        "end": "2026-12-31T00:00:00Z",
        "severity": 0,
        "promoter": "أمانة منطقة الرياض",
        "street": "طريق العروبة"
      }
    },
    {
      "type": "Feature",
      "geometry": {
        "type": "Point",
        "coordinates": [
          46.682872,
          24.698399
        ]
      },
      "properties": {
        "id": "P-3",
        "group": "pois",
        "subtype": "parking",
        "title": "موقف مؤقت",
        "description": "٨٠ موقفاً",
        "start": "2026-07-01T00:00:00Z",
        "end": "2026-12-31T00:00:00Z",
        "severity": 0,
        "promoter": "أمانة منطقة الرياض",
        "street": "شارع العليا"
      }
    }
  ]
}
