{
  "type": "FeatureCollection",
  "features": [
    {
      "type": "Feature",
      "properties": {
        "id": "WORK-2026-0142",
        "road": "طريق الملك فهد (مقطع العليا)",
        "status": "قيد التنفيذ",
        "impactLevel": "high",
        "closureCountThisYear": 1,
        "from": "تقاطع طريق العروبة",
        "to": "تقاطع طريق التخصصي",
        "start": "2026-07-22T06:00:00Z",
        "end": "2026-07-30T18:00:00Z"
      },
      "geometry": {
        "type": "LineString",
        "coordinates": [
          [
            46.696446,
            24.667745
          ],
          [
            46.696225,
            24.667928
          ],
          [
            46.695438,
            24.668671
          ],
          [
            46.694657,
            24.669361
          ],
          [
            46.693471,
            24.670472
          ],
          [
            46.693143,
            24.67081
          ],
          [
            46.692853,
            24.671173
          ],
          [
            46.692599,
            24.671522
          ],
          [
            46.69238,
            24.671884
          ],
          [
            46.692164,
            24.67225
          ],
          [
            46.691958,
            24.672624
          ],
          [
            46.691821,
            24.672879
          ],
          [
            46.691656,
            24.673185
          ],
          [
            46.691366,
            24.673797
          ],
          [
            46.691134,
            24.67426
          ],
          [
            46.690927,
            24.67469
          ],
          [
            46.690763,
            24.675111
          ],
          [
            46.68902,
            24.678446
          ],
          [
            46.687297,
            24.681885
          ],
          [
            46.686615,
            24.683219
          ],
          [
            46.68615,
            24.684099
          ],
          [
            46.685768,
            24.684861
          ],
          [
            46.685468,
            24.685435
          ],
          [
            46.685177,
            24.686003
          ],
          [
            46.684603,
            24.687149
          ],
          [
            46.68279,
            24.690809
          ],
          [
            46.682662,
            24.691087
          ],
          [
            46.681951,
            24.692436
          ],
          [
            46.681378,
            24.69356
          ],
          [
            46.681078,
            24.694109
          ],
          [
            46.680812,
            24.694669
          ],
          [
            46.680312,
            24.695644
          ],
          [
            46.679117,
            24.698128
          ],
          [
            46.678998,
            24.698364
          ]
        ]
      }
    },
    {
      "type": "Feature",
      "properties": {
        "id": "WORK-2026-0157",
        "road": "طريق العروبة",
        "status": "مصرّح - لم يبدأ",
        "impactLevel": "medium",
        "closureCountThisYear": 3,
        "from": "تقاطع طريق الملك فهد",
        "to": "تقاطع طريق الأمير تركي",
        "start": "2026-07-10T06:00:00Z",
        "end": "2026-09-15T18:00:00Z"
      },
      "geometry": {
        "type": "LineString",
        "coordinates": [
          [
            46.705998,
            24.725985
          ],
          [
            46.705849,
            24.725938
          ],
          [
            46.70356,
            24.725081
          ],
          [
            46.70316,
            24.724934
          ],
          [
            46.702245,
            24.724635
          ],
          [
            46.702039,
            24.724568
          ],
          [
            46.701865,
            24.724497
          ],
          [
            46.70081,
            24.724072
          ],
          [
            46.699513,
            24.723538
          ],
          [
            46.698384,
            24.723201
          ],
          [
            46.696857,
            24.722839
          ],
          [
            46.695632,
            24.722466
          ],
          [
            46.694883,
            24.722243
          ],
          [
            46.694179,
            24.721934
          ],
          [
            46.693849,
            24.721789
          ],
          [
            46.693617,
            24.721674
          ],
          [
            46.692907,
            24.721379
          ],
          [
            46.692391,
            24.721159
          ],
          [
            46.692021,
            24.720996
          ],
          [
            46.691025,
            24.720565
          ],
          [
            46.690305,
            24.720253
          ],
          [
            46.689774,
            24.720021
          ],
          [
            46.689262,
            24.719798
          ],
          [
            46.688825,
            24.719606
          ]
        ]
      }
    },
    {
      "type": "Feature",
      "properties": {
        "id": "WORK-2026-0163",
        "road": "طريق التخصصي",
        "status": "منتهٍ",
        "impactLevel": "low",
        "closureCountThisYear": 2,
        "from": "تقاطع طريق الأمير محمد بن عبدالعزيز",
        "to": "تقاطع طريق الملك فهد",
        "start": "2026-07-24T06:00:00Z",
        "end": "2026-07-27T18:00:00Z"
      },
      "geometry": {
        "type": "LineString",
        "coordinates": [
          [
            46.675175,
            24.685444
          ],
          [
            46.675131,
            24.685529
          ],
          [
            46.674771,
            24.686309
          ],
          [
            46.674547,
            24.686749
          ],
          [
            46.674342,
            24.687154
          ],
          [
            46.674307,
            24.687219
          ],
          [
            46.674261,
            24.687305
          ],
          [
            46.674048,
            24.687722
          ],
          [
            46.673811,
            24.688202
          ],
          [
            46.673783,
            24.688248
          ],
          [
            46.673718,
            24.688379
          ],
          [
            46.673628,
            24.688554
          ],
          [
            46.673606,
            24.688597
          ],
          [
            46.67349,
            24.68883
          ],
          [
            46.673319,
            24.689164
          ],
          [
            46.673292,
            24.689216
          ],
          [
            46.673241,
            24.689315
          ],
          [
            46.673193,
            24.689402
          ],
          [
            46.673161,
            24.689461
          ],
          [
            46.673116,
            24.689545
          ],
          [
            46.672934,
            24.689889
          ],
          [
            46.672854,
            24.690052
          ],
          [
            46.672756,
            24.69024
          ],
          [
            46.672726,
            24.690289
          ],
          [
            46.672683,
            24.690382
          ],
          [
            46.672656,
            24.690434
          ],
          [
            46.672331,
            24.691037
          ],
          [
            46.672238,
            24.691214
          ],
          [
            46.672156,
            24.69136
          ],
          [
            46.672133,
            24.691401
          ],
          [
            46.672109,
            24.691452
          ],
          [
            46.67208,
            24.691516
          ],
          [
            46.672044,
            24.691581
          ],
          [
            46.672023,
            24.691626
          ],
          [
            46.672001,
            24.691673
          ],
          [
            46.67198,
            24.69172
          ],
          [
            46.671941,
            24.691823
          ],
          [
            46.671838,
            24.692095
          ],
          [
            46.671756,
            24.692266
          ],
          [
            46.67151,
            24.692772
          ],
          [
            46.671342,
            24.69309
          ],
          [
            46.67038,
            24.695036
          ],
          [
            46.670125,
            24.695537
          ],
          [
            46.669981,
            24.69582
          ],
          [
            46.669899,
            24.695981
          ],
          [
            46.669384,
            24.696979
          ],
          [
            46.669065,
            24.697594
          ],
          [
            46.668772,
            24.698159
          ],
          [
            46.668658,
            24.698378
          ],
          [
            46.668616,
            24.698461
          ],
          [
            46.668602,
            24.698489
          ],
          [
            46.668495,
            24.698725
          ],
          [
            46.668379,
            24.698976
          ]
        ]
      }
    }
  ]
}
